{
  "links" : {
    "next" : "https://api.nasa.gov/neo/rest/v1/feed?start_date=2002-09-23&end_date=2002-09-23&detailed=true&api_key=t0TVs3DtDT2H8Oy2Zy8m2eVrNsAVKAexjcZXUckd",
    "prev" : "https://api.nasa.gov/neo/rest/v1/feed?start_date=2002-09-21&end_date=2002-09-21&detailed=true&api_key=t0TVs3DtDT2H8Oy2Zy8m2eVrNsAVKAexjcZXUckd",
    "self" : "https://api.nasa.gov/neo/rest/v1/feed?start_date=2002-09-22&end_date=2002-09-22&detailed=true&api_key=t0TVs3DtDT2H8Oy2Zy8m2eVrNsAVKAexjcZXUckd"
  },
  "element_count" : 3,
  "near_earth_objects" : {
    "2002-09-22" : [ {
      "links" : {
        "self" : "https://api.nasa.gov/neo/rest/v1/neo/2085640?api_key=t0TVs3DtDT2H8Oy2Zy8m2eVrNsAVKAexjcZXUckd"
      },
      "neo_reference_id" : "2085640",
      "name" : "85640 (1998 OX4)",
      "nasa_jpl_url" : "http://ssd.jpl.nasa.gov/sbdb.cgi?sstr=2085640",
      "absolute_magnitude_h" : 21.1,
      "estimated_diameter" : {
        "kilometers" : {
          "estimated_diameter_min" : 0.160160338,
          "estimated_diameter_max" : 0.358129403
        },
        "meters" : {
          "estimated_diameter_min" : 160.1603379786,
          "estimated_diameter_max" : 358.1294030194
        },
        "miles" : {
          "estimated_diameter_min" : 0.0995189894,
          "estimated_diameter_max" : 0.2225312253
        },
        "feet" : {
          "estimated_diameter_min" : 525.4604432536,
          "estimated_diameter_max" : 1174.9652706022
        }
      },
      "is_potentially_hazardous_asteroid" : true,
      "close_approach_data" : [ {
        "close_approach_date" : "2002-09-22",
        "epoch_date_close_approach" : 1032678000000,
        "relative_velocity" : {
          "kilometers_per_second" : "9.8906721215",
          "kilometers_per_hour" : "35606.4196372376",
          "miles_per_hour" : "22124.4444684824"
        },
        "miss_distance" : {
          "astronomical" : "0.0974410051",
          "lunar" : "37.904548645",
          "kilometers" : "14576967",
          "miles" : "9057707"
        },
        "orbiting_body" : "Earth"
      } ],
      "orbital_data" : {
        "orbit_id" : "62",
        "orbit_determination_date" : "2017-04-06 09:28:39",
        "orbit_uncertainty" : "0",
        "minimum_orbit_intersection" : ".0012263",
        "jupiter_tisserand_invariant" : "4.253",
        "epoch_osculation" : "2458000.5",
        "eccentricity" : ".4858892547653122",
        "semi_major_axis" : "1.580426998527711",
        "inclination" : "4.513110481705398",
        "ascending_node_longitude" : "299.6596048005174",
        "orbital_period" : "725.704952844369",
        "perihelion_distance" : ".8125145020021025",
        "perihelion_argument" : "117.1697748447497",
        "aphelion_distance" : "2.34833949505332",
        "perihelion_time" : "2457667.090268133466",
        "mean_anomaly" : "165.3943562070365",
        "mean_motion" : ".4960693717040178",
        "equinox" : "J2000"
      }
    }, {
      "links" : {
        "self" : "https://api.nasa.gov/neo/rest/v1/neo/2387648?api_key=t0TVs3DtDT2H8Oy2Zy8m2eVrNsAVKAexjcZXUckd"
      },
      "neo_reference_id" : "2387648",
      "name" : "387648 (2002 RT25)",
      "nasa_jpl_url" : "http://ssd.jpl.nasa.gov/sbdb.cgi?sstr=2387648",
      "absolute_magnitude_h" : 19.4,
      "estimated_diameter" : {
        "kilometers" : {
          "estimated_diameter_min" : 0.3503926411,
          "estimated_diameter_max" : 0.7835017643
        },
        "meters" : {
          "estimated_diameter_min" : 350.3926411083,
          "estimated_diameter_max" : 783.5017643338
        },
        "miles" : {
          "estimated_diameter_min" : 0.2177238258,
          "estimated_diameter_max" : 0.4868452748
        },
        "feet" : {
          "estimated_diameter_min" : 1149.5821926537,
          "estimated_diameter_max" : 2570.543928497
        }
      },
      "is_potentially_hazardous_asteroid" : false,
      "close_approach_data" : [ {
        "close_approach_date" : "2002-09-22",
        "epoch_date_close_approach" : 1032678000000,
        "relative_velocity" : {
          "kilometers_per_second" : "14.2559607193",
          "kilometers_per_hour" : "51321.4585895603",
          "miles_per_hour" : "31889.1585330521"
        },
        "miss_distance" : {
          "astronomical" : "0.4998841025",
          "lunar" : "194.4549102783",
          "kilometers" : "74781600",
          "miles" : "46467132"
        },
        "orbiting_body" : "Earth"
      } ],
      "orbital_data" : {
        "orbit_id" : "19",
        "orbit_determination_date" : "2017-04-06 09:22:06",
        "orbit_uncertainty" : "0",
        "minimum_orbit_intersection" : ".330222",
        "jupiter_tisserand_invariant" : "3.651",
        "epoch_osculation" : "2458000.5",
        "eccentricity" : ".4378039373722551",
        "semi_major_axis" : "1.933450294215567",
        "inclination" : "28.8735791048495",
        "ascending_node_longitude" : "165.3093749841242",
        "orbital_period" : "981.9693765912942",
        "perihelion_distance" : "1.086978142694447",
        "perihelion_argument" : "258.9376819076654",
        "aphelion_distance" : "2.779922445736688",
        "perihelion_time" : "2457540.219502282672",
        "mean_anomaly" : "168.7435302243693",
        "mean_motion" : ".3666102106459433",
        "equinox" : "J2000"
      }
    }, {
      "links" : {
        "self" : "https://api.nasa.gov/neo/rest/v1/neo/3134264?api_key=t0TVs3DtDT2H8Oy2Zy8m2eVrNsAVKAexjcZXUckd"
      },
      "neo_reference_id" : "3134264",
      "name" : "(2002 RR25)",
      "nasa_jpl_url" : "http://ssd.jpl.nasa.gov/sbdb.cgi?sstr=3134264",
      "absolute_magnitude_h" : 20.8,
      "estimated_diameter" : {
        "kilometers" : {
          "estimated_diameter_min" : 0.1838886721,
          "estimated_diameter_max" : 0.411187571
        },
        "meters" : {
          "estimated_diameter_min" : 183.8886720703,
          "estimated_diameter_max" : 411.1875710413
        },
        "miles" : {
          "estimated_diameter_min" : 0.1142630881,
          "estimated_diameter_max" : 0.2555000322
        },
        "feet" : {
          "estimated_diameter_min" : 603.309310875,
          "estimated_diameter_max" : 1349.040630575
        }
      },
      "is_potentially_hazardous_asteroid" : false,
      "close_approach_data" : [ {
        "close_approach_date" : "2002-09-22",
        "epoch_date_close_approach" : 1032678000000,
        "relative_velocity" : {
          "kilometers_per_second" : "9.1831587295",
          "kilometers_per_hour" : "33059.3714260779",
          "miles_per_hour" : "20541.8077619427"
        },
        "miss_distance" : {
          "astronomical" : "0.2032622399",
          "lunar" : "79.0690078735",
          "kilometers" : "30407598",
          "miles" : "18894406"
        },
        "orbiting_body" : "Earth"
      } ],
      "orbital_data" : {
        "orbit_id" : "30",
        "orbit_determination_date" : "2017-04-06 09:14:53",
        "orbit_uncertainty" : "2",
        "minimum_orbit_intersection" : ".140707",
        "jupiter_tisserand_invariant" : "6.179",
        "epoch_osculation" : "2458000.5",
        "eccentricity" : ".3098234527237039",
        "semi_major_axis" : ".9668267569172769",
        "inclination" : "13.54184723806724",
        "ascending_node_longitude" : "349.9000618056678",
        "orbital_period" : "347.2333404665642",
        "perihelion_distance" : ".6672811529035051",
        "perihelion_argument" : "156.1118599773118",
        "aphelion_distance" : "1.266372360931049",
        "perihelion_time" : "2457872.896819847254",
        "mean_anomaly" : "132.2947410328301",
        "mean_motion" : "1.036766802163299",
        "equinox" : "J2000"
      }
    } ]
  }
}